[{"OBJECT_NAME":"KUIPER-00209","OBJECT_ID":"2026-030N","EPOCH":"2026-03-04T12:34:58.014048","MEAN_MOTION":15.31288309,"ECCENTRICITY":0.0012795,"INCLINATION":51.8811,"RA_OF_ASC_NODE":244.4424,"ARG_OF_PERICENTER":51.3338,"MEAN_ANOMALY":308.8789,"EPHEMERIS_TYPE":0,"CLASSIFICATION_TYPE":"U","NORAD_CAT_ID":67776,"ELEMENT_SET_NO":999,"REV_AT_EPOCH":429,"BSTAR":0.00034857,"MEAN_MOTION_DOT":0.00010357,"MEAN_MOTION_DDOT":0},{"OBJECT_NAME":"KUIPER-00213","OBJECT_ID":"2026-030P","EPOCH":"2026-03-04T12:29:50.087040","MEAN_MOTION":15.32531731,"ECCENTRICITY":0.0014883,"INCLINATION":51.8793,"RA_OF_ASC_NODE":244.4129,"ARG_OF_PERICENTER":49.311,"MEAN_ANOMALY":310.9165,"EPHEMERIS_TYPE":0,"CLASSIFICATION_TYPE":"U","NORAD_CAT_ID":67777,"ELEMENT_SET_NO":999,"REV_AT_EPOCH":429,"BSTAR":0.001313,"MEAN_MOTION_DOT":0.00041855,"MEAN_MOTION_DDOT":0},{"OBJECT_NAME":"KUIPER-00214","OBJECT_ID":"2026-030Q","EPOCH":"2026-03-04T11:27:09.805248","MEAN_MOTION":15.36558933,"ECCENTRICITY":8.51e-5,"INCLINATION":51.8839,"RA_OF_ASC_NODE":244.1417,"ARG_OF_PERICENTER":206.7927,"MEAN_ANOMALY":153.3016,"EPHEMERIS_TYPE":0,"CLASSIFICATION_TYPE":"U","NORAD_CAT_ID":67778,"ELEMENT_SET_NO":999,"REV_AT_EPOCH":429,"BSTAR":0.00093189,"MEAN_MOTION_DOT":0.00033534,"MEAN_MOTION_DDOT":0},{"OBJECT_NAME":"KUIPER-00215","OBJECT_ID":"2026-030R","EPOCH":"2026-03-04T12:09:22.006080","MEAN_MOTION":15.34220516,"ECCENTRICITY":0.0009988,"INCLINATION":51.8836,"RA_OF_ASC_NODE":244.3322,"ARG_OF_PERICENTER":45.0179,"MEAN_ANOMALY":315.1614,"EPHEMERIS_TYPE":0,"CLASSIFICATION_TYPE":"U","NORAD_CAT_ID":67779,"ELEMENT_SET_NO":999,"REV_AT_EPOCH":429,"BSTAR":0.0011296,"MEAN_MOTION_DOT":0.00037851,"MEAN_MOTION_DDOT":0},{"OBJECT_NAME":"KUIPER-00218","OBJECT_ID":"2026-030S","EPOCH":"2026-03-04T11:56:11.813280","MEAN_MOTION":15.34937985,"ECCENTRICITY":0.0006501,"INCLINATION":51.8831,"RA_OF_ASC_NODE":244.2707,"ARG_OF_PERICENTER":36.3203,"MEAN_ANOMALY":323.8223,"EPHEMERIS_TYPE":0,"CLASSIFICATION_TYPE":"U","NORAD_CAT_ID":67780,"ELEMENT_SET_NO":999,"REV_AT_EPOCH":429,"BSTAR":0.0010134,"MEAN_MOTION_DOT":0.00034663,"MEAN_MOTION_DDOT":0},{"OBJECT_NAME":"KUIPER-00220","OBJECT_ID":"2026-030T","EPOCH":"2026-03-04T12:04:37.735392","MEAN_MOTION":15.34526622,"ECCENTRICITY":0.0008093,"INCLINATION":51.8805,"RA_OF_ASC_NODE":244.3023,"ARG_OF_PERICENTER":42.1466,"MEAN_ANOMALY":318.014,"EPHEMERIS_TYPE":0,"CLASSIFICATION_TYPE":"U","NORAD_CAT_ID":67781,"ELEMENT_SET_NO":999,"REV_AT_EPOCH":429,"BSTAR":0.0013633,"MEAN_MOTION_DOT":0.00046239,"MEAN_MOTION_DDOT":0},{"OBJECT_NAME":"KUIPER-00222","OBJECT_ID":"2026-030U","EPOCH":"2026-03-04T11:01:01.609824","MEAN_MOTION":15.32294208,"ECCENTRICITY":0.0017208,"INCLINATION":51.8793,"RA_OF_ASC_NODE":244.7487,"ARG_OF_PERICENTER":46.389,"MEAN_ANOMALY":313.8519,"EPHEMERIS_TYPE":0,"CLASSIFICATION_TYPE":"U","NORAD_CAT_ID":67782,"ELEMENT_SET_NO":999,"REV_AT_EPOCH":428,"BSTAR":0.0019869,"MEAN_MOTION_DOT":0.0006331,"MEAN_MOTION_DDOT":0},{"OBJECT_NAME":"KUIPER-00223","OBJECT_ID":"2026-030V","EPOCH":"2026-03-04T12:13:57.113184","MEAN_MOTION":15.34021628,"ECCENTRICITY":0.001221,"INCLINATION":51.8821,"RA_OF_ASC_NODE":244.3486,"ARG_OF_PERICENTER":45.7087,"MEAN_ANOMALY":314.4897,"EPHEMERIS_TYPE":0,"CLASSIFICATION_TYPE":"U","NORAD_CAT_ID":67783,"ELEMENT_SET_NO":999,"REV_AT_EPOCH":429,"BSTAR":0.0012997,"MEAN_MOTION_DOT":0.00043397,"MEAN_MOTION_DDOT":0},{"OBJECT_NAME":"KUIPER-00225","OBJECT_ID":"2026-030W","EPOCH":"2026-03-04T11:43:55.548768","MEAN_MOTION":15.35659842,"ECCENTRICITY":0.0004022,"INCLINATION":51.8808,"RA_OF_ASC_NODE":244.21,"ARG_OF_PERICENTER":25.5205,"MEAN_ANOMALY":334.5979,"EPHEMERIS_TYPE":0,"CLASSIFICATION_TYPE":"U","NORAD_CAT_ID":67784,"ELEMENT_SET_NO":999,"REV_AT_EPOCH":429,"BSTAR":0.00093466,"MEAN_MOTION_DOT":0.00032671,"MEAN_MOTION_DDOT":0},{"OBJECT_NAME":"KUIPER-00226","OBJECT_ID":"2026-030X","EPOCH":"2026-03-04T11:16:11.597088","MEAN_MOTION":15.31357795,"ECCENTRICITY":0.0019765,"INCLINATION":51.8804,"RA_OF_ASC_NODE":244.8178,"ARG_OF_PERICENTER":57.966,"MEAN_ANOMALY":302.3241,"EPHEMERIS_TYPE":0,"CLASSIFICATION_TYPE":"U","NORAD_CAT_ID":67785,"ELEMENT_SET_NO":999,"REV_AT_EPOCH":428,"BSTAR":0.0021155,"MEAN_MOTION_DOT":0.00065591,"MEAN_MOTION_DDOT":0},{"OBJECT_NAME":"KUIPER-00259","OBJECT_ID":"2026-030Y","EPOCH":"2026-03-04T11:59:02.510304","MEAN_MOTION":15.34844315,"ECCENTRICITY":0.0008244,"INCLINATION":51.8806,"RA_OF_ASC_NODE":244.2777,"ARG_OF_PERICENTER":34.2977,"MEAN_ANOMALY":325.8539,"EPHEMERIS_TYPE":0,"CLASSIFICATION_TYPE":"U","NORAD_CAT_ID":67786,"ELEMENT_SET_NO":999,"REV_AT_EPOCH":429,"BSTAR":0.001214,"MEAN_MOTION_DOT":0.00041528,"MEAN_MOTION_DDOT":0},{"OBJECT_NAME":"KUIPER-00260","OBJECT_ID":"2026-030Z","EPOCH":"2026-03-04T11:33:22.483872","MEAN_MOTION":15.36232385,"ECCENTRICITY":0.0001108,"INCLINATION":51.8794,"RA_OF_ASC_NODE":244.1625,"ARG_OF_PERICENTER":34.9955,"MEAN_ANOMALY":325.1103,"EPHEMERIS_TYPE":0,"CLASSIFICATION_TYPE":"U","NORAD_CAT_ID":67787,"ELEMENT_SET_NO":999,"REV_AT_EPOCH":420,"BSTAR":0.0014841,"MEAN_MOTION_DOT":0.00053209,"MEAN_MOTION_DDOT":0},{"OBJECT_NAME":"KUIPER-00262","OBJECT_ID":"2026-030AA","EPOCH":"2026-03-04T11:28:34.720032","MEAN_MOTION":15.36534704,"ECCENTRICITY":4.45e-5,"INCLINATION":51.8808,"RA_OF_ASC_NODE":244.143,"ARG_OF_PERICENTER":142.4175,"MEAN_ANOMALY":217.6843,"EPHEMERIS_TYPE":0,"CLASSIFICATION_TYPE":"U","NORAD_CAT_ID":67788,"ELEMENT_SET_NO":999,"REV_AT_EPOCH":429,"BSTAR":0.00097069,"MEAN_MOTION_DOT":0.00034925,"MEAN_MOTION_DDOT":0},{"OBJECT_NAME":"KUIPER-00266","OBJECT_ID":"2026-030AB","EPOCH":"2026-03-04T11:22:31.826208","MEAN_MOTION":15.30945177,"ECCENTRICITY":0.0022915,"INCLINATION":51.8806,"RA_OF_ASC_NODE":244.843,"ARG_OF_PERICENTER":57.2498,"MEAN_ANOMALY":303.0691,"EPHEMERIS_TYPE":0,"CLASSIFICATION_TYPE":"U","NORAD_CAT_ID":67789,"ELEMENT_SET_NO":999,"REV_AT_EPOCH":428,"BSTAR":0.0011605,"MEAN_MOTION_DOT":0.00035282,"MEAN_MOTION_DDOT":0},{"OBJECT_NAME":"KUIPER-00268","OBJECT_ID":"2026-030AC","EPOCH":"2026-03-04T11:40:23.271744","MEAN_MOTION":15.35775633,"ECCENTRICITY":0.0002379,"INCLINATION":51.8845,"RA_OF_ASC_NODE":244.2022,"ARG_OF_PERICENTER":32.6347,"MEAN_ANOMALY":327.4786,"EPHEMERIS_TYPE":0,"CLASSIFICATION_TYPE":"U","NORAD_CAT_ID":67790,"ELEMENT_SET_NO":999,"REV_AT_EPOCH":429,"BSTAR":0.0013374,"MEAN_MOTION_DOT":0.00047175,"MEAN_MOTION_DDOT":0},{"OBJECT_NAME":"KUIPER-00270","OBJECT_ID":"2026-030AD","EPOCH":"2026-03-04T12:06:28.111392","MEAN_MOTION":15.34423846,"ECCENTRICITY":0.0010048,"INCLINATION":51.8804,"RA_OF_ASC_NODE":244.31,"ARG_OF_PERICENTER":41.7747,"MEAN_ANOMALY":318.4004,"EPHEMERIS_TYPE":0,"CLASSIFICATION_TYPE":"U","NORAD_CAT_ID":67791,"ELEMENT_SET_NO":999,"REV_AT_EPOCH":429,"BSTAR":0.001297,"MEAN_MOTION_DOT":0.00043836,"MEAN_MOTION_DDOT":0},{"OBJECT_NAME":"KUIPER-00274","OBJECT_ID":"2026-030AE","EPOCH":"2026-03-04T12:41:26.094336","MEAN_MOTION":15.31481272,"ECCENTRICITY":0.001751,"INCLINATION":51.8811,"RA_OF_ASC_NODE":244.4708,"ARG_OF_PERICENTER":54.2993,"MEAN_ANOMALY":305.9617,"EPHEMERIS_TYPE":0,"CLASSIFICATION_TYPE":"U","NORAD_CAT_ID":67792,"ELEMENT_SET_NO":999,"REV_AT_EPOCH":429,"BSTAR":0.0019435,"MEAN_MOTION_DOT":0.0006034,"MEAN_MOTION_DDOT":0}]
