KUIPER-00209            
1 67776U 26030N   26063.52428257  .00010357  00000+0  34857-3 0  9991
2 67776  51.8811 244.4424 0012795  51.3338 308.8789 15.31288309  4298
KUIPER-00213            
1 67777U 26030P   26063.52071860  .00041855  00000+0  13130-2 0  9993
2 67777  51.8793 244.4129 0014883  49.3110 310.9165 15.32531731  4298
KUIPER-00214            
1 67778U 26030Q   26063.47719682  .00033534  00000+0  93189-3 0  9997
2 67778  51.8839 244.1417 0000851 206.7927 153.3016 15.36558933  4293
KUIPER-00215            
1 67779U 26030R   26063.50650470  .00037851  00000+0  11296-2 0  9995
2 67779  51.8836 244.3322 0009988  45.0179 315.1614 15.34220516  4294
KUIPER-00218            
1 67780U 26030S   26063.49735895  .00034663  00000+0  10134-2 0  9998
2 67780  51.8831 244.2707 0006501  36.3203 323.8223 15.34937985  4293
KUIPER-00220            
1 67781U 26030T   26063.50321453  .00046239  00000+0  13633-2 0  9991
2 67781  51.8805 244.3023 0008093  42.1466 318.0140 15.34526622  4297
KUIPER-00222            
1 67782U 26030U   26063.45904641  .00063310  00000+0  19869-2 0  9998
2 67782  51.8793 244.7487 0017208  46.3890 313.8519 15.32294208  4289
KUIPER-00223            
1 67783U 26030V   26063.50968881  .00043397  00000+0  12997-2 0  9999
2 67783  51.8821 244.3486 0012210  45.7087 314.4897 15.34021628  4299
KUIPER-00225            
1 67784U 26030W   26063.48883737  .00032671  00000+0  93466-3 0  9997
2 67784  51.8808 244.2100 0004022  25.5205 334.5979 15.35659842  4297
KUIPER-00226            
1 67785U 26030X   26063.46957867  .00065591  00000+0  21155-2 0  9994
2 67785  51.8804 244.8178 0019765  57.9660 302.3241 15.31357795  4281
KUIPER-00259            
1 67786U 26030Y   26063.49933461  .00041528  00000+0  12140-2 0  9990
2 67786  51.8806 244.2777 0008244  34.2977 325.8539 15.34844315  4295
KUIPER-00260            
1 67787U 26030Z   26063.48151023  .00053209  00000+0  14841-2 0  9995
2 67787  51.8794 244.1625 0001108  34.9955 325.1103 15.36232385  4209
KUIPER-00262            
1 67788U 26030AA  26063.47817963  .00034925  00000+0  97069-3 0  9995
2 67788  51.8808 244.1430 0000445 142.4175 217.6843 15.36534704  4297
KUIPER-00266            
1 67789U 26030AB  26063.47397947  .00035282  00000+0  11605-2 0  9999
2 67789  51.8806 244.8430 0022915  57.2498 303.0691 15.30945177  4284
KUIPER-00268            
1 67790U 26030AC  26063.48638046  .00047175  00000+0  13374-2 0  9999
2 67790  51.8845 244.2022 0002379  32.6347 327.4786 15.35775633  4291
KUIPER-00270            
1 67791U 26030AD  26063.50449203  .00043836  00000+0  12970-2 0  9999
2 67791  51.8804 244.3100 0010048  41.7747 318.4004 15.34423846  4290
KUIPER-00274            
1 67792U 26030AE  26063.52877424  .00060340  00000+0  19435-2 0  9994
2 67792  51.8811 244.4708 0017510  54.2993 305.9617 15.31481272  4292
